[{"OBJECT_NAME":"STARLINK-5564","OBJECT_ID":"2023-046AU","EPOCH":"2026-03-09T22:00:01.999584","MEAN_MOTION":15.11676593,"ECCENTRICITY":0.00016086,"INCLINATION":43.0004,"RA_OF_ASC_NODE":144.6022,"ARG_OF_PERICENTER":272.6422,"MEAN_ANOMALY":233.8185,"EPHEMERIS_TYPE":0,"CLASSIFICATION_TYPE":"U","NORAD_CAT_ID":56134,"ELEMENT_SET_NO":999,"REV_AT_EPOCH":578,"BSTAR":0.044796839,"MEAN_MOTION_DOT":0.0083359,"MEAN_MOTION_DDOT":0},{"OBJECT_NAME":"COSMOS 2579","OBJECT_ID":"2024-197A","EPOCH":"2026-03-09T23:06:38.118816","MEAN_MOTION":15.2412329,"ECCENTRICITY":0.00026117,"INCLINATION":97.557,"RA_OF_ASC_NODE":352.0823,"ARG_OF_PERICENTER":56.3903,"MEAN_ANOMALY":303.7583,"EPHEMERIS_TYPE":0,"CLASSIFICATION_TYPE":"U","NORAD_CAT_ID":61730,"ELEMENT_SET_NO":999,"REV_AT_EPOCH":7535,"BSTAR":0.00021686366,"MEAN_MOTION_DOT":5.199e-5,"MEAN_MOTION_DDOT":0}]
